STARLINK-30755          
1 58186U 23167M   26068.26855532  .00002142  00000+0  87320-4 0  9997
2 58186  43.0067 145.5335 0004172 301.2030  58.8413 15.27603027130926
FLOCK 4G-15             
1 62678U 25009BX  26068.71779869  .00012647  00000+0  47575-3 0  9991
2 62678  97.4054 151.1927 0003699 316.8208  43.2740 15.27266411121358
